ONEWEB-0392             
1 50472U 21132D   25279.15003177  .00000080  00000+0  17227-3 0  9995
2 50472  87.9091  56.3536 0001872  86.1131 274.0215 13.17646124184661
ONEWEB-0393             
1 50473U 21132E   25279.12319030 -.00000009  00000+0 -55419-4 0  9990
2 50473  87.9090  56.3793 0001750  91.1615 268.9717 13.17647767184656
ONEWEB-0394             
1 50474U 21132F   25279.21507278  .00000052  00000+0  99092-4 0  9995
2 50474  87.9223  25.8708 0001757  94.9873 265.1460 13.18686077188124
ONEWEB-0395             
1 50475U 21132G   25279.17510231  .00000250  00000+0  66811-3 0  9996
2 50475  87.8800  71.6712 0001962  92.5488 267.5865 13.11417417182428
ONEWEB-0396             
1 50476U 21132H   25279.20846998 -.00000051  00000+0 -16156-3 0  9991
2 50476  87.9229  25.8845 0001760  95.7750 264.3583 13.18686158188162
ONEWEB-0397             
1 50477U 21132J   25278.99567506 -.00000019  00000+0 -80917-4 0  9993
2 50477  87.9228  25.9276 0001626  96.9581 263.1737 13.18688085188111
ONEWEB-0398             
1 50478U 21132K   25278.99026676 -.00000477  00000+0 -13828-2 0  9995
2 50478  87.8808  71.6756 0002033  99.1988 260.9370 13.11414876182294
ONEWEB-0399             
1 50479U 21132L   25279.12931902  .00000031  00000+0  52036-4 0  9999
2 50479  87.8799  71.6675 0001700  75.7363 284.3954 13.11415080182309
ONEWEB-0400             
1 50480U 21132M   25279.05010256  .00000006  00000+0 -16323-4 0  9995
2 50480  87.9223  25.9066 0001931 103.7744 256.3603 13.18687683188113
ONEWEB-0401             
1 50481U 21132N   25279.01876455 -.00000294  00000+0 -77803-3 0  9992
2 50481  87.9225  25.9099 0001573 101.0779 259.0530 13.18685411188119
ONEWEB-0402             
1 50482U 21132P   25279.21010769  .00000001  00000+0 -29675-4 0  9993
2 50482  87.9225  25.8649 0001168 106.9620 253.1640 13.18688683188165
ONEWEB-0403             
1 50483U 21132Q   25278.32433545  .00000059  00000+0  11593-3 0  9997
2 50483  87.9227  26.0600 0001805  97.7412 262.3925 13.18687061188002
ONEWEB-0404             
1 50484U 21132R   25279.18696666  .00000570  00000+0  15723-2 0  9994
2 50484  87.8805  71.6633 0001880  82.7291 277.4050 13.11415292182400
ONEWEB-0405             
1 50485U 21132S   25279.02207874  .00000049  00000+0  91102-4 0  9995
2 50485  87.9226  25.9068 0001501  97.5784 262.5519 13.18687299188499
ONEWEB-0406             
1 50486U 21132T   25279.01216801  .00000075  00000+0  15770-3 0  9990
2 50486  87.9227  25.9323 0002262  93.4777 266.6613 13.18683993188124
ONEWEB-0407             
1 50487U 21132U   25279.00557243  .00000090  00000+0  19678-3 0  9996
2 50487  87.9227  25.9185 0001634 105.9436 254.1876 13.18688615188066
ONEWEB-0409             
1 50488U 21132V   25279.18527344  .00000516  00000+0  14202-2 0  9995
2 50488  87.8809  71.6238 0001984  89.6155 270.5200 13.11415410182299
