[{"OBJECT_NAME":"ONEWEB-0392","OBJECT_ID":"2021-132D","EPOCH":"2025-10-06T03:36:02.744928","MEAN_MOTION":13.17646124,"ECCENTRICITY":0.0001872,"INCLINATION":87.9091,"RA_OF_ASC_NODE":56.3536,"ARG_OF_PERICENTER":86.1131,"MEAN_ANOMALY":274.0215,"EPHEMERIS_TYPE":0,"CLASSIFICATION_TYPE":"U","NORAD_CAT_ID":50472,"ELEMENT_SET_NO":999,"REV_AT_EPOCH":18466,"BSTAR":0.00017227,"MEAN_MOTION_DOT":8.0e-7,"MEAN_MOTION_DDOT":0},{"OBJECT_NAME":"ONEWEB-0393","OBJECT_ID":"2021-132E","EPOCH":"2025-10-06T02:57:23.641920","MEAN_MOTION":13.17647767,"ECCENTRICITY":0.000175,"INCLINATION":87.909,"RA_OF_ASC_NODE":56.3793,"ARG_OF_PERICENTER":91.1615,"MEAN_ANOMALY":268.9717,"EPHEMERIS_TYPE":0,"CLASSIFICATION_TYPE":"U","NORAD_CAT_ID":50473,"ELEMENT_SET_NO":999,"REV_AT_EPOCH":18465,"BSTAR":-5.5419e-5,"MEAN_MOTION_DOT":-9.0e-8,"MEAN_MOTION_DDOT":0},{"OBJECT_NAME":"ONEWEB-0394","OBJECT_ID":"2021-132F","EPOCH":"2025-10-06T05:09:42.288192","MEAN_MOTION":13.18686077,"ECCENTRICITY":0.0001757,"INCLINATION":87.9223,"RA_OF_ASC_NODE":25.8708,"ARG_OF_PERICENTER":94.9873,"MEAN_ANOMALY":265.146,"EPHEMERIS_TYPE":0,"CLASSIFICATION_TYPE":"U","NORAD_CAT_ID":50474,"ELEMENT_SET_NO":999,"REV_AT_EPOCH":18812,"BSTAR":9.9092e-5,"MEAN_MOTION_DOT":5.2e-7,"MEAN_MOTION_DDOT":0},{"OBJECT_NAME":"ONEWEB-0395","OBJECT_ID":"2021-132G","EPOCH":"2025-10-06T04:12:08.839584","MEAN_MOTION":13.11417417,"ECCENTRICITY":0.0001962,"INCLINATION":87.88,"RA_OF_ASC_NODE":71.6712,"ARG_OF_PERICENTER":92.5488,"MEAN_ANOMALY":267.5865,"EPHEMERIS_TYPE":0,"CLASSIFICATION_TYPE":"U","NORAD_CAT_ID":50475,"ELEMENT_SET_NO":999,"REV_AT_EPOCH":18242,"BSTAR":0.00066811,"MEAN_MOTION_DOT":2.5e-6,"MEAN_MOTION_DDOT":0},{"OBJECT_NAME":"ONEWEB-0396","OBJECT_ID":"2021-132H","EPOCH":"2025-10-06T05:00:11.806272","MEAN_MOTION":13.18686158,"ECCENTRICITY":0.000176,"INCLINATION":87.9229,"RA_OF_ASC_NODE":25.8845,"ARG_OF_PERICENTER":95.775,"MEAN_ANOMALY":264.3583,"EPHEMERIS_TYPE":0,"CLASSIFICATION_TYPE":"U","NORAD_CAT_ID":50476,"ELEMENT_SET_NO":999,"REV_AT_EPOCH":18816,"BSTAR":-0.00016156,"MEAN_MOTION_DOT":-5.1e-7,"MEAN_MOTION_DDOT":0},{"OBJECT_NAME":"ONEWEB-0397","OBJECT_ID":"2021-132J","EPOCH":"2025-10-05T23:53:46.325184","MEAN_MOTION":13.18688085,"ECCENTRICITY":0.0001626,"INCLINATION":87.9228,"RA_OF_ASC_NODE":25.9276,"ARG_OF_PERICENTER":96.9581,"MEAN_ANOMALY":263.1737,"EPHEMERIS_TYPE":0,"CLASSIFICATION_TYPE":"U","NORAD_CAT_ID":50477,"ELEMENT_SET_NO":999,"REV_AT_EPOCH":18811,"BSTAR":-8.0917e-5,"MEAN_MOTION_DOT":-1.9e-7,"MEAN_MOTION_DDOT":0},{"OBJECT_NAME":"ONEWEB-0398","OBJECT_ID":"2021-132K","EPOCH":"2025-10-05T23:45:59.048064","MEAN_MOTION":13.11414876,"ECCENTRICITY":0.0002033,"INCLINATION":87.8808,"RA_OF_ASC_NODE":71.6756,"ARG_OF_PERICENTER":99.1988,"MEAN_ANOMALY":260.937,"EPHEMERIS_TYPE":0,"CLASSIFICATION_TYPE":"U","NORAD_CAT_ID":50478,"ELEMENT_SET_NO":999,"REV_AT_EPOCH":18229,"BSTAR":-0.0013828,"MEAN_MOTION_DOT":-4.77e-6,"MEAN_MOTION_DDOT":0},{"OBJECT_NAME":"ONEWEB-0399","OBJECT_ID":"2021-132L","EPOCH":"2025-10-06T03:06:13.163328","MEAN_MOTION":13.1141508,"ECCENTRICITY":0.00017,"INCLINATION":87.8799,"RA_OF_ASC_NODE":71.6675,"ARG_OF_PERICENTER":75.7363,"MEAN_ANOMALY":284.3954,"EPHEMERIS_TYPE":0,"CLASSIFICATION_TYPE":"U","NORAD_CAT_ID":50479,"ELEMENT_SET_NO":999,"REV_AT_EPOCH":18230,"BSTAR":5.2036e-5,"MEAN_MOTION_DOT":3.1e-7,"MEAN_MOTION_DDOT":0},{"OBJECT_NAME":"ONEWEB-0400","OBJECT_ID":"2021-132M","EPOCH":"2025-10-06T01:12:08.861184","MEAN_MOTION":13.18687683,"ECCENTRICITY":0.0001931,"INCLINATION":87.9223,"RA_OF_ASC_NODE":25.9066,"ARG_OF_PERICENTER":103.7744,"MEAN_ANOMALY":256.3603,"EPHEMERIS_TYPE":0,"CLASSIFICATION_TYPE":"U","NORAD_CAT_ID":50480,"ELEMENT_SET_NO":999,"REV_AT_EPOCH":18811,"BSTAR":-1.6323e-5,"MEAN_MOTION_DOT":6.0e-8,"MEAN_MOTION_DDOT":0},{"OBJECT_NAME":"ONEWEB-0401","OBJECT_ID":"2021-132N","EPOCH":"2025-10-06T00:27:01.257120","MEAN_MOTION":13.18685411,"ECCENTRICITY":0.0001573,"INCLINATION":87.9225,"RA_OF_ASC_NODE":25.9099,"ARG_OF_PERICENTER":101.0779,"MEAN_ANOMALY":259.053,"EPHEMERIS_TYPE":0,"CLASSIFICATION_TYPE":"U","NORAD_CAT_ID":50481,"ELEMENT_SET_NO":999,"REV_AT_EPOCH":18811,"BSTAR":-0.00077803,"MEAN_MOTION_DOT":-2.94e-6,"MEAN_MOTION_DDOT":0},{"OBJECT_NAME":"ONEWEB-0402","OBJECT_ID":"2021-132P","EPOCH":"2025-10-06T05:02:33.304416","MEAN_MOTION":13.18688683,"ECCENTRICITY":0.0001168,"INCLINATION":87.9225,"RA_OF_ASC_NODE":25.8649,"ARG_OF_PERICENTER":106.962,"MEAN_ANOMALY":253.164,"EPHEMERIS_TYPE":0,"CLASSIFICATION_TYPE":"U","NORAD_CAT_ID":50482,"ELEMENT_SET_NO":999,"REV_AT_EPOCH":18816,"BSTAR":-2.9675e-5,"MEAN_MOTION_DOT":1.0e-8,"MEAN_MOTION_DDOT":0},{"OBJECT_NAME":"ONEWEB-0403","OBJECT_ID":"2021-132Q","EPOCH":"2025-10-05T07:47:02.582880","MEAN_MOTION":13.18687061,"ECCENTRICITY":0.0001805,"INCLINATION":87.9227,"RA_OF_ASC_NODE":26.06,"ARG_OF_PERICENTER":97.7412,"MEAN_ANOMALY":262.3925,"EPHEMERIS_TYPE":0,"CLASSIFICATION_TYPE":"U","NORAD_CAT_ID":50483,"ELEMENT_SET_NO":999,"REV_AT_EPOCH":18800,"BSTAR":0.00011593,"MEAN_MOTION_DOT":5.9e-7,"MEAN_MOTION_DDOT":0},{"OBJECT_NAME":"ONEWEB-0404","OBJECT_ID":"2021-132R","EPOCH":"2025-10-06T04:29:13.919424","MEAN_MOTION":13.11415292,"ECCENTRICITY":0.000188,"INCLINATION":87.8805,"RA_OF_ASC_NODE":71.6633,"ARG_OF_PERICENTER":82.7291,"MEAN_ANOMALY":277.405,"EPHEMERIS_TYPE":0,"CLASSIFICATION_TYPE":"U","NORAD_CAT_ID":50484,"ELEMENT_SET_NO":999,"REV_AT_EPOCH":18240,"BSTAR":0.0015723,"MEAN_MOTION_DOT":5.7e-6,"MEAN_MOTION_DDOT":0},{"OBJECT_NAME":"ONEWEB-0405","OBJECT_ID":"2021-132S","EPOCH":"2025-10-06T00:31:47.603136","MEAN_MOTION":13.18687299,"ECCENTRICITY":0.0001501,"INCLINATION":87.9226,"RA_OF_ASC_NODE":25.9068,"ARG_OF_PERICENTER":97.5784,"MEAN_ANOMALY":262.5519,"EPHEMERIS_TYPE":0,"CLASSIFICATION_TYPE":"U","NORAD_CAT_ID":50485,"ELEMENT_SET_NO":999,"REV_AT_EPOCH":18849,"BSTAR":9.1102e-5,"MEAN_MOTION_DOT":4.9e-7,"MEAN_MOTION_DDOT":0},{"OBJECT_NAME":"ONEWEB-0406","OBJECT_ID":"2021-132T","EPOCH":"2025-10-06T00:17:31.316064","MEAN_MOTION":13.18683993,"ECCENTRICITY":0.0002262,"INCLINATION":87.9227,"RA_OF_ASC_NODE":25.9323,"ARG_OF_PERICENTER":93.4777,"MEAN_ANOMALY":266.6613,"EPHEMERIS_TYPE":0,"CLASSIFICATION_TYPE":"U","NORAD_CAT_ID":50486,"ELEMENT_SET_NO":999,"REV_AT_EPOCH":18812,"BSTAR":0.0001577,"MEAN_MOTION_DOT":7.5e-7,"MEAN_MOTION_DDOT":0},{"OBJECT_NAME":"ONEWEB-0407","OBJECT_ID":"2021-132U","EPOCH":"2025-10-06T00:08:01.457952","MEAN_MOTION":13.18688615,"ECCENTRICITY":0.0001634,"INCLINATION":87.9227,"RA_OF_ASC_NODE":25.9185,"ARG_OF_PERICENTER":105.9436,"MEAN_ANOMALY":254.1876,"EPHEMERIS_TYPE":0,"CLASSIFICATION_TYPE":"U","NORAD_CAT_ID":50487,"ELEMENT_SET_NO":999,"REV_AT_EPOCH":18806,"BSTAR":0.00019678,"MEAN_MOTION_DOT":9.0e-7,"MEAN_MOTION_DDOT":0},{"OBJECT_NAME":"ONEWEB-0409","OBJECT_ID":"2021-132V","EPOCH":"2025-10-06T04:26:47.625216","MEAN_MOTION":13.1141541,"ECCENTRICITY":0.0001984,"INCLINATION":87.8809,"RA_OF_ASC_NODE":71.6238,"ARG_OF_PERICENTER":89.6155,"MEAN_ANOMALY":270.52,"EPHEMERIS_TYPE":0,"CLASSIFICATION_TYPE":"U","NORAD_CAT_ID":50488,"ELEMENT_SET_NO":999,"REV_AT_EPOCH":18229,"BSTAR":0.0014202,"MEAN_MOTION_DOT":5.16e-6,"MEAN_MOTION_DDOT":0}]
